NORAD_CAT_ID,OBJECT_NAME,OBJECT_TYPE,EPOCH,MEAN_MOTION,ECCENTRICITY,INCLINATION,RA_OF_ASC_NODE,ARG_OF_PERICENTER,MEAN_ANOMALY,BSTAR,MEAN_MOTION_DOT,MEAN_MOTION_DDOT,TLE_LINE0,TLE_LINE1,TLE_LINE2,SEMIMAJOR_AXIS,PERIOD,APOGEE,PERIGEE,DECAYED
50809.0,STARLINK-3232,PAYLOAD,2022-06-24 12:46:12,15.08834373,0.0002335,53.216,118.171,54.2756,305.8453,1.8546e-05,7e-08,0.0,0 STARLINK-3232,1 50809U 22001G   22175.53208930  .00000007  00000-0  18546-4 0  9999,2 50809  53.2160 118.1710 0002335  54.2756 305.8453 15.08834373 26112,6917.898,95.438,541.378,538.1469999999998,0.0
50809.0,STARLINK-3232,PAYLOAD,2022-06-25 12:36:59,15.08845334,0.0002574,53.2172,113.7107,55.3429,304.7806,-6.297e-05,-1.291e-05,0.0,0 STARLINK-3232,1 50809U 22001G   22176.52568772 -.00001291  00000-0 -62970-4 0  9990,2 50809  53.2172 113.7107 0002574  55.3429 304.7806 15.08845334 26265,6917.864000000001,95.437,541.51,537.948,0.0
50809.0,STARLINK-3232,PAYLOAD,2022-06-25 18:58:31,15.08840376,0.0002498,53.2169,112.5208,54.4724,305.6501,9.2258e-05,1.18e-05,0.0,0 STARLINK-3232,1 50809U 22001G   22176.79064786  .00001180  00000-0  92258-4 0  9992,2 50809  53.2169 112.5208 0002498  54.4724 305.6501 15.08840376 26301,6917.879,95.438,541.472,538.016,0.0
50809.0,STARLINK-3232,PAYLOAD,2022-06-26 02:55:28,15.08836112,0.0002517,53.2171,111.0336,54.3156,305.807,4.74e-05,4.66e-06,0.0,0 STARLINK-3232,1 50809U 22001G   22177.12185254  .00000466  00000-0  47400-4 0  9999,2 50809  53.2171 111.0336 0002517  54.3156 305.8070 15.08836112 27633,6917.892,95.438,541.499,538.016,0.0
50809.0,STARLINK-3232,PAYLOAD,2022-06-26 12:27:46,15.08835735,0.0002496,53.2171,109.2499,55.5912,304.5316,6.0297e-05,6.71e-06,0.0,0 STARLINK-3232,1 50809U 22001G   22177.51929346  .00000671  00000-0  60297-4 0  9997,2 50809  53.2171 109.2499 0002496  55.5912 304.5316 15.08835735 26415,6917.893,95.438,541.485,538.0319999999998,0.0
50809.0,STARLINK-3232,PAYLOAD,2022-06-26 18:49:19,15.08837984,0.0002402,53.217,108.0599,56.2414,303.8806,0.00012964,1.775e-05,0.0,0 STARLINK-3232,1 50809U 22001G   22177.78425047  .00001775  00000-0  12964-3 0  9998,2 50809  53.2170 108.0599 0002402  56.2414 303.8806 15.08837984 26452,6917.887,95.438,541.413,538.09,0.0
50809.0,STARLINK-3232,PAYLOAD,2022-06-27 02:46:14,15.08845017,0.0002428,53.2172,106.5731,56.7293,303.3932,0.00014515,2.023e-05,0.0,0 STARLINK-3232,1 50809U 22001G   22178.11544617  .00002023  00000-0  14515-3 0  9992,2 50809  53.2172 106.5731 0002428  56.7293 303.3932 15.08845017 27781,6917.865,95.437,541.41,538.05,0.0
50809.0,STARLINK-3232,PAYLOAD,2022-06-27 18:40:06,15.08836408,0.0002432,53.2171,103.5994,57.0959,303.0267,1.0912e-06,-2.71e-06,0.0,0 STARLINK-3232,1 50809U 22001G   22178.77785526 -.00000271  00000-0  10912-5 0  9993,2 50809  53.2171 103.5994 0002432  57.0959 303.0267 15.08836408 26608,6917.891,95.438,541.439,538.0740000000002,0.0
50809.0,STARLINK-3232,PAYLOAD,2022-06-28 02:37:03,15.08826677,0.0002406,53.2173,102.1128,58.7751,301.3476,-5.4471e-05,-1.155e-05,0.0,0 STARLINK-3232,1 50809U 22001G   22179.10906408 -.00001155  00000-0 -54471-4 0  9995,2 50809  53.2173 102.1128 0002406  58.7751 301.3476 15.08826677 27930,6917.920999999999,95.438,541.451,538.122,0.0
50809.0,STARLINK-3232,PAYLOAD,2022-06-28 12:09:21,15.08828579,0.000239,53.2172,100.3285,59.1601,300.9626,-2.8456e-05,-7.41e-06,0.0,0 STARLINK-3232,1 50809U 22001G   22179.50650456 -.00000741  00000-0 -28456-4 0  9992,2 50809  53.2172 100.3285 0002390  59.1601 300.9626 15.08828579 26714,6917.915,95.438,541.434,538.127,0.0
50809.0,STARLINK-3232,PAYLOAD,2022-06-28 18:30:54,15.08830474,0.0002232,53.2175,99.1381,57.7299,302.3909,-8.1407e-06,-4.18e-06,0.0,0 STARLINK-3232,1 50809U 22001G   22179.77146345 -.00000418  00000-0 -81407-5 0  9995,2 50809  53.2175  99.1381 0002232  57.7299 302.3909 15.08830474 26752,6917.91,95.438,541.319,538.23,0.0
50809.0,STARLINK-3232,PAYLOAD,2022-06-29 04:03:12,15.08838606,0.0002314,53.2174,97.355,60.5668,299.5555,-2.8347e-05,-7.39e-06,0.0,0 STARLINK-3232,1 50809U 22001G   22180.16890011 -.00000739  00000-0 -28347-4 0  9995,2 50809  53.2174  97.3550 0002314  60.5668 299.5555 15.08838606 28090,6917.885,95.438,541.35,538.149,0.0
50809.0,STARLINK-3232,PAYLOAD,2022-06-29 12:00:08,15.08840391,0.0002154,53.2173,95.8684,64.4628,295.6587,2.69e-06,-2.45e-06,0.0,0 STARLINK-3232,1 50809U 22001G   22180.50009780 -.00000245  00000-0  26900-5 0  9993,2 50809  53.2173  95.8684 0002154  64.4628 295.6587 15.08840391 26860,6917.879,95.438,541.234,538.254,0.0
50809.0,STARLINK-3232,PAYLOAD,2022-06-29 21:32:27,15.08833518,0.0002335,53.2174,94.0841,58.4142,301.7078,0.00013852,1.917e-05,0.0,0 STARLINK-3232,1 50809U 22001G   22180.89753959  .00001917  00000-0  13852-3 0  9995,2 50809  53.2174  94.0841 0002335  58.4142 301.7078 15.08833518 26926,6917.9,95.438,541.381,538.15,0.0
50809.0,STARLINK-3232,PAYLOAD,2022-06-30 03:53:59,15.08836598,0.0002381,53.2173,92.8948,59.1225,301.0001,0.00015508,2.18e-05,0.0,0 STARLINK-3232,1 50809U 22001G   22181.16249798  .00002180  00000-0  15508-3 0  9990,2 50809  53.2173  92.8948 0002381  59.1225 301.0001 15.08836598 26964,6917.891,95.438,541.403,538.109,0.0
50809.0,STARLINK-3232,PAYLOAD,2022-06-30 18:12:27,15.08841407,0.0002405,53.2173,90.2185,60.8416,299.2817,9.5899e-05,1.238e-05,0.0,0 STARLINK-3232,1 50809U 22001G   22181.75865737  .00001238  00000-0  95899-4 0  9997,2 50809  53.2173  90.2185 0002405  60.8416 299.2817 15.08841407 28338,6917.876,95.437,541.405,538.077,0.0
50809.0,STARLINK-3232,PAYLOAD,2022-07-01 03:44:47,15.08835635,0.0002396,53.2176,88.4343,60.5607,299.5624,2.7232e-05,1.45e-06,0.0,0 STARLINK-3232,1 50809U 22001G   22182.15610395  .00000145  00000-0  27232-4 0  9992,2 50809  53.2176  88.4343 0002396  60.5607 299.5624 15.08835635 27114,6917.894,95.438,541.4159999999998,538.101,0.0
50809.0,STARLINK-3232,PAYLOAD,2022-07-01 21:14:01,15.08842237,0.000242,53.2175,85.1637,61.6006,298.523,2.3127e-05,8e-07,0.0,0 STARLINK-3232,1 50809U 22001G   22182.88473942  .00000080  00000-0  23127-4 0  9994,2 50809  53.2175  85.1637 0002420  61.6006 298.5230 15.08842237 27226,6917.874,95.437,541.413,538.064,0.0
50809.0,STARLINK-3232,PAYLOAD,2022-07-02 00:24:47,15.08845102,0.0002419,53.2175,84.5689,61.3347,298.7888,1.583e-05,-3.6e-07,0.0,0 STARLINK-3232,1 50809U 22001G   22183.01721759 -.00000036  00000-0  15830-4 0  9996,2 50809  53.2175  84.5689 0002419  61.3347 298.7888 15.08845102 28528,6917.865,95.437,541.403,538.056,0.0
50809.0,STARLINK-3232,PAYLOAD,2022-07-02 09:57:06,15.08846649,0.0002436,53.2176,82.7848,61.8295,298.2943,2.6653e-05,1.36e-06,0.0,0 STARLINK-3232,1 50809U 22001G   22183.41465485  .00000136  00000-0  26653-4 0  9996,2 50809  53.2176  82.7848 0002436  61.8295 298.2943 15.08846649 27301,6917.86,95.437,541.41,538.04,0.0
50809.0,STARLINK-3232,PAYLOAD,2022-07-03 03:26:21,15.08837856,0.0002452,53.2179,79.5145,64.4603,295.6642,5.6874e-05,6.17e-06,0.0,0 STARLINK-3232,1 50809U 22001G   22184.14329914  .00000617  00000-0  56874-4 0  9995,2 50809  53.2179  79.5145 0002452  64.4603 295.6642 15.08837856 28698,6917.887,95.438,541.448,538.056,0.0
50809.0,STARLINK-3232,PAYLOAD,2022-07-03 20:55:34,15.08847794,0.0002447,53.2183,76.2434,66.0499,294.0749,5.1387e-05,5.3e-06,0.0,0 STARLINK-3232,1 50809U 22001G   22184.87193118  .00000530  00000-0  51387-4 0  9998,2 50809  53.2183  76.2434 0002447  66.0499 294.0749 15.08847794 27527,6917.857,95.437,541.414,538.029,0.0
50809.0,STARLINK-3232,PAYLOAD,2022-07-04 01:41:44,15.08841385,0.0002392,53.218,75.3508,63.5455,296.5783,-2.85e-06,-3.34e-06,0.0,0 STARLINK-3232,1 50809U 22001G   22185.07065660 -.00000334  00000-0 -28500-5 0  9997,2 50809  53.2180  75.3508 0002392  63.5455 296.5783 15.08841385 28839,6917.876,95.437,541.396,538.086,0.0
50809.0,STARLINK-3232,PAYLOAD,2022-07-04 09:38:41,15.08827616,0.0002316,53.2181,73.8651,65.8764,294.247,-0.00011804,-2.166e-05,0.0,0 STARLINK-3232,1 50809U 22001G   22185.40187067 -.00002166  00000-0 -11804-3 0  9992,2 50809  53.2181  73.8651 0002316  65.8764 294.2470 15.08827616 28880,6917.918000000002,95.438,541.385,538.181,0.0
50809.0,STARLINK-3232,PAYLOAD,2022-07-04 22:21:46,15.08828197,0.0002292,53.2182,71.4852,65.9016,294.2216,-5.7913e-05,-1.21e-05,0.0,0 STARLINK-3232,1 50809U 22001G   22185.93179237 -.00001210  00000-0 -57913-4 0  9991,2 50809  53.2182  71.4852 0002292  65.9016 294.2216 15.08828197 27682,6917.916,95.438,541.367,538.196,0.0
50809.0,STARLINK-3232,PAYLOAD,2022-07-05 09:29:28,15.08833511,0.0002302,53.2179,69.4034,65.0254,295.0977,-2.6042e-05,-7.03e-06,0.0,0 STARLINK-3232,1 50809U 22001G   22186.39547121 -.00000703  00000-0 -26042-4 0  9998,2 50809  53.2179  69.4034 0002302  65.0254 295.0977 15.08833511 29034,6917.9,95.438,541.3580000000002,538.173,0.0
50809.0,STARLINK-3232,PAYLOAD,2022-07-05 20:37:10,15.08838565,0.0002339,53.2181,67.3218,69.5939,290.5305,-6.1782e-06,-3.87e-06,0.0,0 STARLINK-3232,1 50809U 22001G   22186.85914908 -.00000387  00000-0 -61782-5 0  9999,2 50809  53.2181  67.3218 0002339  69.5939 290.5305 15.08838565 27821,6917.885,95.438,541.368,538.132,0.0
50809.0,STARLINK-3232,PAYLOAD,2022-07-06 09:20:15,15.08835215,0.0002254,53.2179,64.9431,66.3868,293.7361,0.00016033,2.264e-05,0.0,0 STARLINK-3232,1 50809U 22001G   22187.38906894  .00002264  00000-0  16033-3 0  9994,2 50809  53.2179  64.9431 0002254  66.3868 293.7361 15.08835215 27905,6917.895,95.438,541.319,538.201,0.0
50809.0,STARLINK-3232,PAYLOAD,2022-07-06 22:03:20,15.08840794,0.0002247,53.218,62.5642,66.9603,293.1625,0.00022107,3.232e-05,0.0,0 STARLINK-3232,1 50809U 22001G   22187.91898651  .00003232  00000-0  22107-3 0  9999,2 50809  53.2180  62.5642 0002247  66.9603 293.1625 15.08840794 27983,6917.878000000002,95.438,541.297,538.189,0.0
50809.0,STARLINK-3232,PAYLOAD,2022-07-07 01:14:06,15.08843636,0.0002254,53.2178,61.9693,67.4191,292.704,0.00021298,3.103e-05,0.0,0 STARLINK-3232,1 50809U 22001G   22188.05146535  .00003103  00000-0  21298-3 0  9999,2 50809  53.2178  61.9693 0002254  67.4191 292.7040 15.08843636 28003,6917.869000000002,95.437,541.294,538.175,0.0
